[{"OBJECT_NAME":"OBJECT B","OBJECT_ID":"2024-226B","EPOCH":"2026-03-09T23:24:55.641600","MEAN_MOTION":13.41489461,"ECCENTRICITY":0.00118176,"INCLINATION":50.0059,"RA_OF_ASC_NODE":332.3036,"ARG_OF_PERICENTER":131.5157,"MEAN_ANOMALY":228.6736,"EPHEMERIS_TYPE":0,"CLASSIFICATION_TYPE":"U","NORAD_CAT_ID":62186,"ELEMENT_SET_NO":999,"REV_AT_EPOCH":6239,"BSTAR":0.00015119455,"MEAN_MOTION_DOT":-4.4e-7,"MEAN_MOTION_DDOT":0},{"OBJECT_NAME":"COSMOS 839 DEB","OBJECT_ID":"1976-067AA","EPOCH":"2026-03-09T11:18:02.950272","MEAN_MOTION":12.4556763,"ECCENTRICITY":0.07532455,"INCLINATION":66.0339,"RA_OF_ASC_NODE":178.7309,"ARG_OF_PERICENTER":30.1779,"MEAN_ANOMALY":334.0465,"EPHEMERIS_TYPE":0,"CLASSIFICATION_TYPE":"U","NORAD_CAT_ID":10449,"ELEMENT_SET_NO":999,"REV_AT_EPOCH":25794,"BSTAR":7.73949e-6,"MEAN_MOTION_DOT":-5.2e-7,"MEAN_MOTION_DDOT":0}]
